[{"OBJECT_NAME":"STARLINK-36899","OBJECT_ID":"2026-041U","EPOCH":"2026-03-13T22:00:01.999584","MEAN_MOTION":15.80901321,"ECCENTRICITY":3.652e-5,"INCLINATION":53.1592,"RA_OF_ASC_NODE":40.7991,"ARG_OF_PERICENTER":48.286,"MEAN_ANOMALY":140.9381,"EPHEMERIS_TYPE":0,"CLASSIFICATION_TYPE":"U","NORAD_CAT_ID":68058,"ELEMENT_SET_NO":999,"REV_AT_EPOCH":305,"BSTAR":0.0001443508,"MEAN_MOTION_DOT":0.00027921,"MEAN_MOTION_DDOT":0},{"OBJECT_NAME":"STARLINK-36917","OBJECT_ID":"2026-041V","EPOCH":"2026-03-13T22:00:01.999584","MEAN_MOTION":15.80853402,"ECCENTRICITY":0.0001145,"INCLINATION":53.1592,"RA_OF_ASC_NODE":40.7905,"ARG_OF_PERICENTER":115.6514,"MEAN_ANOMALY":77.8942,"EPHEMERIS_TYPE":0,"CLASSIFICATION_TYPE":"U","NORAD_CAT_ID":68059,"ELEMENT_SET_NO":999,"REV_AT_EPOCH":305,"BSTAR":0.00034161083,"MEAN_MOTION_DOT":0.00067189,"MEAN_MOTION_DDOT":0},{"OBJECT_NAME":"STARLINK-36959","OBJECT_ID":"2026-041W","EPOCH":"2026-03-13T22:00:01.999584","MEAN_MOTION":15.80822594,"ECCENTRICITY":0.00010768,"INCLINATION":53.1589,"RA_OF_ASC_NODE":40.7809,"ARG_OF_PERICENTER":88.4129,"MEAN_ANOMALY":109.4245,"EPHEMERIS_TYPE":0,"CLASSIFICATION_TYPE":"U","NORAD_CAT_ID":68060,"ELEMENT_SET_NO":999,"REV_AT_EPOCH":305,"BSTAR":0.00050910315,"MEAN_MOTION_DOT":0.00100725,"MEAN_MOTION_DDOT":0},{"OBJECT_NAME":"STARLINK-36915","OBJECT_ID":"2026-041X","EPOCH":"2026-03-13T22:00:01.999584","MEAN_MOTION":15.80936906,"ECCENTRICITY":6.843e-5,"INCLINATION":53.1591,"RA_OF_ASC_NODE":40.7717,"ARG_OF_PERICENTER":89.4462,"MEAN_ANOMALY":112.6551,"EPHEMERIS_TYPE":0,"CLASSIFICATION_TYPE":"U","NORAD_CAT_ID":68061,"ELEMENT_SET_NO":999,"REV_AT_EPOCH":305,"BSTAR":-0.00083999108,"MEAN_MOTION_DOT":-0.00163855,"MEAN_MOTION_DDOT":0},{"OBJECT_NAME":"STARLINK-36952","OBJECT_ID":"2026-041Y","EPOCH":"2026-03-13T22:00:01.999584","MEAN_MOTION":15.80871268,"ECCENTRICITY":0.00010479,"INCLINATION":53.1589,"RA_OF_ASC_NODE":40.7638,"ARG_OF_PERICENTER":128.8118,"MEAN_ANOMALY":77.5483,"EPHEMERIS_TYPE":0,"CLASSIFICATION_TYPE":"U","NORAD_CAT_ID":68062,"ELEMENT_SET_NO":999,"REV_AT_EPOCH":305,"BSTAR":0.00013389759,"MEAN_MOTION_DOT":0.00025805,"MEAN_MOTION_DDOT":0},{"OBJECT_NAME":"STARLINK-37000","OBJECT_ID":"2026-041Z","EPOCH":"2026-03-13T22:00:01.999584","MEAN_MOTION":15.80778811,"ECCENTRICITY":0.00013641,"INCLINATION":53.1589,"RA_OF_ASC_NODE":40.7544,"ARG_OF_PERICENTER":124.5756,"MEAN_ANOMALY":86.0568,"EPHEMERIS_TYPE":0,"CLASSIFICATION_TYPE":"U","NORAD_CAT_ID":68063,"ELEMENT_SET_NO":999,"REV_AT_EPOCH":305,"BSTAR":0.0011523452,"MEAN_MOTION_DOT":0.0023194,"MEAN_MOTION_DDOT":0},{"OBJECT_NAME":"STARLINK-36996","OBJECT_ID":"2026-041AA","EPOCH":"2026-03-13T22:00:01.999584","MEAN_MOTION":15.80778558,"ECCENTRICITY":2.597e-5,"INCLINATION":53.1591,"RA_OF_ASC_NODE":40.7456,"ARG_OF_PERICENTER":66.9022,"MEAN_ANOMALY":148.0061,"EPHEMERIS_TYPE":0,"CLASSIFICATION_TYPE":"U","NORAD_CAT_ID":68064,"ELEMENT_SET_NO":999,"REV_AT_EPOCH":305,"BSTAR":0.0011270015,"MEAN_MOTION_DOT":0.0022669,"MEAN_MOTION_DDOT":0},{"OBJECT_NAME":"STARLINK-36836","OBJECT_ID":"2026-041AB","EPOCH":"2026-03-13T22:00:01.999584","MEAN_MOTION":15.8084753,"ECCENTRICITY":0.00010608,"INCLINATION":53.1592,"RA_OF_ASC_NODE":40.7276,"ARG_OF_PERICENTER":79.9885,"MEAN_ANOMALY":143.4839,"EPHEMERIS_TYPE":0,"CLASSIFICATION_TYPE":"U","NORAD_CAT_ID":68065,"ELEMENT_SET_NO":999,"REV_AT_EPOCH":305,"BSTAR":0.00029778998,"MEAN_MOTION_DOT":0.00058404,"MEAN_MOTION_DDOT":0},{"OBJECT_NAME":"STARLINK-36976","OBJECT_ID":"2026-041AC","EPOCH":"2026-03-13T22:00:01.999584","MEAN_MOTION":15.80867852,"ECCENTRICITY":5.67e-5,"INCLINATION":53.1589,"RA_OF_ASC_NODE":40.7186,"ARG_OF_PERICENTER":99.542,"MEAN_ANOMALY":128.1944,"EPHEMERIS_TYPE":0,"CLASSIFICATION_TYPE":"U","NORAD_CAT_ID":68066,"ELEMENT_SET_NO":999,"REV_AT_EPOCH":305,"BSTAR":7.5334435e-5,"MEAN_MOTION_DOT":0.00014191,"MEAN_MOTION_DDOT":0},{"OBJECT_NAME":"STARLINK-36929","OBJECT_ID":"2026-041AD","EPOCH":"2026-03-13T22:00:01.999584","MEAN_MOTION":15.8076128,"ECCENTRICITY":0.00012901,"INCLINATION":53.1592,"RA_OF_ASC_NODE":40.7365,"ARG_OF_PERICENTER":68.9866,"MEAN_ANOMALY":150.2045,"EPHEMERIS_TYPE":0,"CLASSIFICATION_TYPE":"U","NORAD_CAT_ID":68067,"ELEMENT_SET_NO":999,"REV_AT_EPOCH":305,"BSTAR":0.0011978849,"MEAN_MOTION_DOT":0.00241201,"MEAN_MOTION_DDOT":0},{"OBJECT_NAME":"STARLINK-36990","OBJECT_ID":"2026-041AE","EPOCH":"2026-03-13T22:00:01.999584","MEAN_MOTION":15.80868068,"ECCENTRICITY":5.44e-5,"INCLINATION":53.159,"RA_OF_ASC_NODE":40.7095,"ARG_OF_PERICENTER":77.7728,"MEAN_ANOMALY":154.2398,"EPHEMERIS_TYPE":0,"CLASSIFICATION_TYPE":"U","NORAD_CAT_ID":68068,"ELEMENT_SET_NO":999,"REV_AT_EPOCH":305,"BSTAR":3.1703693e-5,"MEAN_MOTION_DOT":5.562e-5,"MEAN_MOTION_DDOT":0},{"OBJECT_NAME":"STARLINK-36766","OBJECT_ID":"2026-042A","EPOCH":"2026-03-13T22:00:01.999584","MEAN_MOTION":15.89680691,"ECCENTRICITY":9.639e-5,"INCLINATION":53.1595,"RA_OF_ASC_NODE":173.6882,"ARG_OF_PERICENTER":72.4678,"MEAN_ANOMALY":155.5967,"EPHEMERIS_TYPE":0,"CLASSIFICATION_TYPE":"U","NORAD_CAT_ID":68069,"ELEMENT_SET_NO":999,"REV_AT_EPOCH":272,"BSTAR":-0.0050463304,"MEAN_MOTION_DOT":-0.01342191,"MEAN_MOTION_DDOT":0},{"OBJECT_NAME":"STARLINK-36823","OBJECT_ID":"2026-042B","EPOCH":"2026-03-13T22:00:01.999584","MEAN_MOTION":15.89794705,"ECCENTRICITY":8.894e-5,"INCLINATION":53.1588,"RA_OF_ASC_NODE":173.6815,"ARG_OF_PERICENTER":81.3873,"MEAN_ANOMALY":149.8722,"EPHEMERIS_TYPE":0,"CLASSIFICATION_TYPE":"U","NORAD_CAT_ID":68070,"ELEMENT_SET_NO":999,"REV_AT_EPOCH":272,"BSTAR":-0.0049996284,"MEAN_MOTION_DOT":-0.01338081,"MEAN_MOTION_DDOT":0},{"OBJECT_NAME":"STARLINK-36970","OBJECT_ID":"2026-042C","EPOCH":"2026-03-13T22:00:01.999584","MEAN_MOTION":15.90015271,"ECCENTRICITY":8.182e-5,"INCLINATION":53.1595,"RA_OF_ASC_NODE":173.6686,"ARG_OF_PERICENTER":91.5133,"MEAN_ANOMALY":146.0273,"EPHEMERIS_TYPE":0,"CLASSIFICATION_TYPE":"U","NORAD_CAT_ID":68071,"ELEMENT_SET_NO":999,"REV_AT_EPOCH":273,"BSTAR":-0.0048791314,"MEAN_MOTION_DOT":-0.01322747,"MEAN_MOTION_DDOT":0},{"OBJECT_NAME":"STARLINK-36972","OBJECT_ID":"2026-042D","EPOCH":"2026-03-13T22:00:01.999584","MEAN_MOTION":15.89924124,"ECCENTRICITY":9.632e-5,"INCLINATION":53.1595,"RA_OF_ASC_NODE":173.6756,"ARG_OF_PERICENTER":70.346,"MEAN_ANOMALY":163.8157,"EPHEMERIS_TYPE":0,"CLASSIFICATION_TYPE":"U","NORAD_CAT_ID":68072,"ELEMENT_SET_NO":999,"REV_AT_EPOCH":273,"BSTAR":-0.0049695771,"MEAN_MOTION_DOT":-0.01338862,"MEAN_MOTION_DDOT":0},{"OBJECT_NAME":"STARLINK-37074","OBJECT_ID":"2026-042E","EPOCH":"2026-03-13T22:00:01.999584","MEAN_MOTION":15.90154984,"ECCENTRICITY":9.111e-5,"INCLINATION":53.1595,"RA_OF_ASC_NODE":173.6624,"ARG_OF_PERICENTER":69.9601,"MEAN_ANOMALY":170.7454,"EPHEMERIS_TYPE":0,"CLASSIFICATION_TYPE":"U","NORAD_CAT_ID":68073,"ELEMENT_SET_NO":999,"REV_AT_EPOCH":273,"BSTAR":-0.0049698108,"MEAN_MOTION_DOT":-0.01352934,"MEAN_MOTION_DDOT":0}]
