STARLINK-36899          
1 68058U 26041U   26072.91668981  .00027921  00000+0  14435-3 0  9995
2 68058  53.1592  40.7991 0000365  48.2860 140.9381 15.80901321  3050
STARLINK-36917          
1 68059U 26041V   26072.91668981  .00067189  00000+0  34161-3 0  9994
2 68059  53.1592  40.7905 0001145 115.6514  77.8942 15.80853402  3055
STARLINK-36959          
1 68060U 26041W   26072.91668981  .00100725  00000+0  50910-3 0  9990
2 68060  53.1589  40.7809 0001076  88.4129 109.4245 15.80822594  3054
STARLINK-36915          
1 68061U 26041X   26072.91668981 -.00163855  00000+0 -83999-3 0  9999
2 68061  53.1591  40.7717 0000684  89.4462 112.6551 15.80936906  3050
STARLINK-36952          
1 68062U 26041Y   26072.91668981  .00025805  00000+0  13390-3 0  9998
2 68062  53.1589  40.7638 0001047 128.8118  77.5483 15.80871268  3052
STARLINK-37000          
1 68063U 26041Z   26072.91668981  .00231940  00000+0  11523-2 0  9993
2 68063  53.1589  40.7544 0001364 124.5756  86.0568 15.80778811  3051
STARLINK-36996          
1 68064U 26041AA  26072.91668981  .00226690  00000+0  11270-2 0  9999
2 68064  53.1591  40.7456 0000259  66.9022 148.0061 15.80778558  3059
STARLINK-36836          
1 68065U 26041AB  26072.91668981  .00058404  00000+0  29779-3 0  9990
2 68065  53.1592  40.7276 0001060  79.9885 143.4839 15.80847530  3052
STARLINK-36976          
1 68066U 26041AC  26072.91668981  .00014191  00000+0  75334-4 0  9995
2 68066  53.1589  40.7186 0000567  99.5420 128.1944 15.80867852  3059
STARLINK-36929          
1 68067U 26041AD  26072.91668981  .00241201  00000+0  11979-2 0  9993
2 68067  53.1592  40.7365 0001290  68.9866 150.2045 15.80761280  3057
STARLINK-36990          
1 68068U 26041AE  26072.91668981  .00005562  00000+0  31704-4 0  9992
2 68068  53.1590  40.7095 0000544  77.7728 154.2398 15.80868068  3059
STARLINK-36766          
1 68069U 26042A   26072.91668981 -.01342191  00000+0 -50463-2 0  9990
2 68069  53.1595 173.6882 0000963  72.4678 155.5967 15.89680691  2728
STARLINK-36823          
1 68070U 26042B   26072.91668981 -.01338081  00000+0 -49996-2 0  9994
2 68070  53.1588 173.6815 0000889  81.3873 149.8722 15.89794705  2728
STARLINK-36970          
1 68071U 26042C   26072.91668981 -.01322747  00000+0 -48791-2 0  9999
2 68071  53.1595 173.6686 0000818  91.5133 146.0273 15.90015271  2734
STARLINK-36972          
1 68072U 26042D   26072.91668981 -.01338862  00000+0 -49696-2 0  9990
2 68072  53.1595 173.6756 0000963  70.3460 163.8157 15.89924124  2734
STARLINK-37074          
1 68073U 26042E   26072.91668981 -.01352934  00000+0 -49698-2 0  9999
2 68073  53.1595 173.6624 0000911  69.9601 170.7454 15.90154984  2731
